TRANSPORTER-12 OBJECT AZ
1 62656U 25009AZ  26068.71026235  .00016057  00000+0  54903-3 0  9991
2 62656  97.3981 151.9913 0000987  45.3581 314.7740 15.30349724 63792
STARLINK-33619          
1 63324U 25057T   26068.30441643  .00025210  00000+0  92208-3 0  9997
2 63324  43.0033  32.5765 0001968 250.6607 109.4032 15.27594350 55720
